{
  "norad_id": 63114,
  "name": "STARLINK-11600 [DTC]",
  "history": [
    {
      "epoch": "2026-03-28T19:19:47.887968Z",
      "apogee_km": 357.2987633452749,
      "perigee_km": 355.25177139248535,
      "latitude_deg": -1.5547000920767605e-06,
      "longitude_deg": 5.29017563931908,
      "height_km": 355.2851010666375,
      "semi_major_axis_km": 6734.41226736888,
      "eccentricity": 0.00015198,
      "inclination_deg": 43.001,
      "raan_deg": 121.4603,
      "arg_perigee_deg": 42.0149,
      "mean_anomaly_deg": 318.0835,
      "mean_motion_rev_day": 15.70916903
    },
    {
      "epoch": "2026-03-29T02:57:34.023744Z",
      "apogee_km": 357.04264652441,
      "perigee_km": 355.1449402868275,
      "latitude_deg": -3.4932109425081105e-06,
      "longitude_deg": -111.38189053954622,
      "height_km": 355.7671570214904,
      "semi_major_axis_km": 6734.230793405618,
      "eccentricity": 0.0001409,
      "inclination_deg": 43.0004,
      "raan_deg": 119.5438,
      "arg_perigee_deg": 275.9969,
      "mean_anomaly_deg": 84.0738,
      "mean_motion_rev_day": 15.70980403
    },
    {
      "epoch": "2026-03-30T04:54:06.105312Z",
      "apogee_km": 357.9220738504664,
      "perigee_km": 355.0181112721548,
      "latitude_deg": -5.060794204746536e-05,
      "longitude_deg": -148.09722343688662,
      "height_km": 355.9454529754643,
      "semi_major_axis_km": 6734.60709256131,
      "eccentricity": 0.0002156,
      "inclination_deg": 43.0007,
      "raan_deg": 113.0276,
      "arg_perigee_deg": 281.8341,
      "mean_anomaly_deg": 78.2284,
      "mean_motion_rev_day": 15.70848736
    },
    {
      "epoch": "2026-03-30T06:25:39.767232Z",
      "apogee_km": 357.39505869038385,
      "perigee_km": 355.4743588390438,
      "latitude_deg": 2.7753868071862995e-05,
      "longitude_deg": -171.4327691033112,
      "height_km": 356.33181053077504,
      "semi_major_axis_km": 6734.571708764714,
      "eccentricity": 0.0001426,
      "inclination_deg": 42.9999,
      "raan_deg": 112.6449,
      "arg_perigee_deg": 262.5405,
      "mean_anomaly_deg": 97.5301,
      "mean_motion_rev_day": 15.70861116
    },
    {
      "epoch": "2026-03-30T12:31:54.447744Z",
      "apogee_km": 357.4830129208558,
      "perigee_km": 355.2223794196443,
      "latitude_deg": -1.785533162087287e-05,
      "longitude_deg": 95.22202818222382,
      "height_km": 356.12389388918893,
      "semi_major_axis_km": 6734.48969617025,
      "eccentricity": 0.00016784,
      "inclination_deg": 42.999,
      "raan_deg": 111.1116,
      "arg_perigee_deg": 270.0689,
      "mean_anomaly_deg": 89.9986,
      "mean_motion_rev_day": 15.70889811
    },
    {
      "epoch": "2026-03-30T18:38:09.535200Z",
      "apogee_km": 356.46363740610104,
      "perigee_km": 356.19910748843085,
      "latitude_deg": -1.6202611142257455e-05,
      "longitude_deg": 1.8765756241926643,
      "height_km": 355.970486569255,
      "semi_major_axis_km": 6734.468372447265,
      "eccentricity": 1.964e-05,
      "inclination_deg": 42.9997,
      "raan_deg": 109.5797,
      "arg_perigee_deg": 356.5874,
      "mean_anomaly_deg": 3.4992,
      "mean_motion_rev_day": 15.70897272
    },
    {
      "epoch": "2026-03-31T17:31:33.110112Z",
      "apogee_km": 357.4532781230637,
      "perigee_km": 354.9629173059284,
      "latitude_deg": 9.116788277222143e-06,
      "longitude_deg": 11.837821060392281,
      "height_km": 355.2420864775921,
      "semi_major_axis_km": 6734.345097714496,
      "eccentricity": 0.0001849,
      "inclination_deg": 42.9989,
      "raan_deg": 103.8292,
      "arg_perigee_deg": 306.3766,
      "mean_anomaly_deg": 53.6931,
      "mean_motion_rev_day": 15.70940406
    },
    {
      "epoch": "2026-04-01T11:50:15.800352Z",
      "apogee_km": 356.9702696933555,
      "perigee_km": 355.7257368647488,
      "latitude_deg": 1.5495059025526257e-05,
      "longitude_deg": 91.81051154703866,
      "height_km": 356.09728233525965,
      "semi_major_axis_km": 6734.485003279052,
      "eccentricity": 9.24e-05,
      "inclination_deg": 42.999,
      "raan_deg": 99.2318,
      "arg_perigee_deg": 272.085,
      "mean_anomaly_deg": 87.9912,
      "mean_motion_rev_day": 15.70891453
    },
    {
      "epoch": "2026-04-02T16:49:52.688064Z",
      "apogee_km": 357.9615478418482,
      "perigee_km": 354.0436254303431,
      "latitude_deg": 4.530567717087008e-05,
      "longitude_deg": 8.432121626996814,
      "height_km": 355.2331032891979,
      "semi_major_axis_km": 6734.139586636095,
      "eccentricity": 0.0002909,
      "inclination_deg": 43.0033,
      "raan_deg": 91.9478,
      "arg_perigee_deg": 286.1044,
      "mean_anomaly_deg": 73.9504,
      "mean_motion_rev_day": 15.71012319
    },
    {
      "epoch": "2026-04-02T22:56:06.566784Z",
      "apogee_km": 357.77811284374457,
      "perigee_km": 354.7208360720697,
      "latitude_deg": 1.1345641251827834e-05,
      "longitude_deg": -84.90941882933915,
      "height_km": 356.173565345019,
      "semi_major_axis_km": 6734.386474457907,
      "eccentricity": 0.00022699,
      "inclination_deg": 43.0017,
      "raan_deg": 90.4148,
      "arg_perigee_deg": 264.3379,
      "mean_anomaly_deg": 95.723,
      "mean_motion_rev_day": 15.70925928
    },
    {
      "epoch": "2026-04-03T20:17:58.810848Z",
      "apogee_km": 357.6836096071165,
      "perigee_km": 353.63390483872263,
      "latitude_deg": 1.1150965220437288e-05,
      "longitude_deg": -51.61971200891118,
      "height_km": 356.31581934555066,
      "semi_major_axis_km": 6733.79575722292,
      "eccentricity": 0.0003007,
      "inclination_deg": 42.9996,
      "raan_deg": 85.0496,
      "arg_perigee_deg": 244.1192,
      "mean_anomaly_deg": 115.9366,
      "mean_motion_rev_day": 15.71132645
    },
    {
      "epoch": "2026-04-04T00:52:40.133568Z",
      "apogee_km": 357.3041387055391,
      "perigee_km": 355.7570508656636,
      "latitude_deg": 4.053357672730888e-05,
      "longitude_deg": -121.6310764639044,
      "height_km": 356.73390543456037,
      "semi_major_axis_km": 6734.667594785601,
      "eccentricity": 0.00011486,
      "inclination_deg": 42.9987,
      "raan_deg": 83.8984,
      "arg_perigee_deg": 236.098,
      "mean_anomaly_deg": 123.9779,
      "mean_motion_rev_day": 15.70827568
    }
  ]
}